#aV2006  4  1  0  0   .00000000      96 DD+AD WGS84 FIT  NGA
## 1368 518400.00000000   900.00000000 53826  .0000000000000
+   29     1  2  3  4  5  6  7  8  9 10 11 13 14 15 16 17 18
+         19 20 21 22 23 24 25 26 27 28 29 30  0  0  0  0  0
+          0  0  0  0  0  0  0  0  0  0  0  0  0  0  0  0  0
+          0  0  0  0  0  0  0  0  0  0  0  0  0  0  0  0  0
+          0  0  0  0  0  0  0  0  0  0  0  0  0  0  0  0  0
++         0  0  0  0  0  0  0  0  0  0  0  0  0  0  0  0  0
++         0  0  0  0  0  0  0  0  0  0  0  0  0  0  0  0  0
++         0  0  0  0  0  0  0  0  0  0  0  0  0  0  0  0  0
++         0  0  0  0  0  0  0  0  0  0  0  0  0  0  0  0  0
++         0  0  0  0  0  0  0  0  0  0  0  0  0  0  0  0  0
%c cc cc ccc ccc cccc cccc cccc cccc ccccc ccccc ccccc ccccc
%c cc cc ccc ccc cccc cccc cccc cccc ccccc ccccc ccccc ccccc
%f  0.0000000  0.000000000  0.00000000000  0.000000000000000
%f  0.0000000  0.000000000  0.00000000000  0.000000000000000
%i    0    0    0    0      0      0      0      0         0
%i    0    0    0    0      0      0      0      0         0
/*      NGA, ST. LOUIS,MO.                                  
/*   EPHEMERIS COMPUTED FROM  3 DAYS OF DATA                
/* CCCCCCCCCCCCCCCCCCCCCCCCCCCCCCCCCCCCCCCCCCCCCCCCCCCCCCCCC
/* CCCCCCCCCCCCCCCCCCCCCCCCCCCCCCCCCCCCCCCCCCCCCCCCCCCCCCCCC
*  2006  4  1 12 15   .00000000                                                 
P  1  15431.288303  14749.724705  16027.756885     44.625225                    
V  1 -19634.540377  -3579.618708  22433.688341       .020869                    
P  2 -12829.705253 -22297.136570  -7266.378910    -11.523646                    
V  2   -152.823218  -9255.298143  29594.401340       .020101                    
P  3  20498.906848  11841.436377 -12500.956532     86.623796                    
V  3 -15817.771297   1061.240905 -24958.001685       .032497                    
P  4  -5834.288229 -25562.992497   2745.087160    193.129616                    
V  4   4339.366400   2397.090271  31489.942012       .104462                    
P  5 -20110.262542   8572.167919  14773.205560   -240.825642                    
V  5   9447.034140 -16968.983287  22578.799999       .713597                    
P  6 -20146.912106   7901.474151 -15255.779540    443.549448                    
V  6 -19018.814472  -5942.996782  21683.891022       .256701                    
P  7  -7544.516524  14336.707640 -20758.926151    522.391316                    
V  7 -26786.573046  -4693.357427   6226.269323       .054346                    
P  8   1366.538596 -23783.137609 -11453.502055    -61.321979                    
V  8   6221.454204  13254.642733 -27511.423257      -.011341                    
P  9 -16521.161758  -4587.512239  19822.465538     14.254100                    
V  9  -8156.663648 -25023.089009 -11978.278959       .016032                    
P 10 -11807.878188  -9253.912894 -22017.949383     81.083051                    
V 10  18923.095271 -20206.664108  -1356.439215       .005266                    
P 11  18068.763898   1626.501794  19396.533065    317.536517                    
V 11   9687.406304  23082.748895 -10674.853727       .026321                    
P 13  18460.412372  -7502.907344 -17607.397586     51.466413                    
V 13  21314.059963   6151.837362  19874.365031       .026086                    
P 14    249.234758  14976.104905  22005.032432    -16.777609                    
V 14 -27101.684049  -5733.892927   4178.897978       .007002                    
P 15  -2546.254593  23650.407245 -11566.880982    589.601215                    
V 15  -6147.994311 -13501.603660 -27020.511500       .061230                    
P 16   6270.040833  14855.263523 -21001.137766     34.303789                    
V 16 -18668.955948  19360.705839   8182.922017       .021085                    
P 17   1354.057844 -15221.149635  21711.374812     76.718078                    
V 17  27049.140274   5505.031756   2082.618175       .054182                    
P 18 -18089.831339  19214.034092    710.532941   -228.663216                    
V 18  -2808.412525  -1633.406265 -31881.954545      -.019035                    
P 19  25647.215426   6981.452345      1.581338    -16.893514                    
V 19   -867.773542   2725.171852 -31684.072351       .013849                    
P 20  20754.196525  -8716.693911  13980.399336    -29.473587                    
V 20 -10130.119103  14963.276272  24243.183230       .007536                    
P 21  -8424.562277  17509.155804 -17827.141552     18.031077                    
V 21  -8409.878773 -21495.384967 -17608.298890       .029768                    
P 22  -8571.741334  21620.791915  12978.633125     81.371950                    
V 22 -13115.246704   9867.356449 -25401.299583       .034364                    
P 23  25486.975330   -221.472931  -7837.644135    145.333772                    
V 23   9114.203414   4215.863127  29714.342207      -.011579                    
P 24   4806.612568 -21594.082606  14747.963223     97.323284                    
V 24   6953.971484  17197.123398  23533.519427       .029885                    
P 25  10013.763414  24522.628799    821.805653      -.134818                    
V 25  -3137.274855    742.738932  31639.095687       .121045                    
P 26 -24969.957875  -9001.392496  -4645.380284    -74.732828                    
V 26   5466.883387    -63.955302 -31292.338055      -.101809                    
P 27   6785.462741 -17444.747248 -18107.726973     42.386643                    
V 27  10762.641362  21943.884667 -16900.432712       .016373                    
P 28  10756.461237 -21997.117421  10119.742326     30.363001                    
V 28  10538.859332  -7356.620775 -28310.519737      -.008006                    
P 29 -23484.216728  -9886.550014  -7733.614815    575.280844                    
V 29  10193.600246    288.660163 -30114.011444       .091519                    
P 30 -19589.954651  16701.928549   6010.449967     78.882691                    
V 30   2567.090244  -8312.871096  30198.765428       .600492                    
EOF
